start=new Date('2021-12-29T00:00:00.000Z').valueOf();
sats=[{"PERIOD":"95.592","MEAN_MOTION_DOT":"0.00005733","PERIAPSIS":"545.863","LAUNCH_DATE":"2020-06-13","REF_FRAME":"TEME","OBJECT_TYPE":"PAYLOAD","MEAN_ANOMALY":"303.4015","REV_AT_EPOCH":"8560","INCLINATION":"53.0536","EPOCH":"2021-12-28T21:45:56.317248","SEMIMAJOR_AXIS":"6925.329","TLE_LINE2":"2 45760  53.0536 253.0711 0001923  56.7158 303.4015 15.06406255 85601","NORAD_CAT_ID":"45760","OBJECT_NAME":"STARLINK-1494","TIME_SYSTEM":"UTC","RA_OF_ASC_NODE":"253.0711","TLE_LINE1":"1 45760U 20038AG  21362.90690182  .00005733  00000-0  40338-3 0  9993","RCS_SIZE":"LARGE","MEAN_MOTION_DDOT":"0.0000000000000","DECAY_DATE":null,"FILE":"3254265","SITE":"AFETR","COUNTRY_CODE":"US","ECCENTRICITY":"0.00019230","OBJECT_ID":"2020-038AG","MEAN_MOTION":"15.06406255","BSTAR":"0.00040338000000","MEAN_ELEMENT_THEORY":"SGP4","ARG_OF_PERICENTER":"56.7158","CLASSIFICATION_TYPE":"U","ELEMENT_SET_NO":"999","GP_ID":"192672921","APOAPSIS":"548.526","CENTER_NAME":"EARTH","EPHEMERIS_TYPE":"0"},{"TLE_LINE2":"2 45761  53.0538 213.1314 0001771  41.6748 318.4397 15.56831656 86173","NORAD_CAT_ID":"45761","SEMIMAJOR_AXIS":"6774.970","TIME_SYSTEM":"UTC","OBJECT_NAME":"STARLINK-1495","TLE_LINE1":"1 45761U 20038AH  21362.89582086  .00013092  00000-0  18570-3 0  9995","RA_OF_ASC_NODE":"213.1314","RCS_SIZE":"LARGE","INCLINATION":"53.0538","EPOCH":"2021-12-28T21:29:58.922304","MEAN_ANOMALY":"318.4397","REV_AT_EPOCH":"8617","PERIOD":"92.496","MEAN_MOTION_DOT":"0.00013092","LAUNCH_DATE":"2020-06-13","PERIAPSIS":"395.636","REF_FRAME":"TEME","OBJECT_TYPE":"PAYLOAD","CLASSIFICATION_TYPE":"U","ARG_OF_PERICENTER":"41.6748","ELEMENT_SET_NO":"999","GP_ID":"192673673","APOAPSIS":"398.035","CENTER_NAME":"EARTH","EPHEMERIS_TYPE":"0","ECCENTRICITY":"0.00017710","MEAN_MOTION":"15.56831656","OBJECT_ID":"2020-038AH","BSTAR":"0.00018570000000","MEAN_ELEMENT_THEORY":"SGP4","SITE":"AFETR","FILE":"3254265","COUNTRY_CODE":"US","MEAN_MOTION_DDOT":"0.0000000000000","DECAY_DATE":null},{"SEMIMAJOR_AXIS":"6925.363","TLE_LINE2":"2 45762  53.0531 253.2002 0001853  63.1805 296.9373 15.06395129 85606","NORAD_CAT_ID":"45762","OBJECT_NAME":"STARLINK-1499","TIME_SYSTEM":"UTC","TLE_LINE1":"1 45762U 20038AJ  21362.87742209  .00001311  00000-0  10693-3 0  9998","RA_OF_ASC_NODE":"253.2002","RCS_SIZE":"LARGE","INCLINATION":"53.0531","EPOCH":"2021-12-28T21:03:29.268576","MEAN_ANOMALY":"296.9373","REV_AT_EPOCH":"8560","PERIOD":"95.592","MEAN_MOTION_DOT":"0.00001311","PERIAPSIS":"545.945","LAUNCH_DATE":"2020-06-13","REF_FRAME":"TEME","OBJECT_TYPE":"PAYLOAD","CLASSIFICATION_TYPE":"U","ARG_OF_PERICENTER":"63.1805","ELEMENT_SET_NO":"999","GP_ID":"192673423","CENTER_NAME":"EARTH","APOAPSIS":"548.512","EPHEMERIS_TYPE":"0","ECCENTRICITY":"0.00018530","MEAN_MOTION":"15.06395129","OBJECT_ID":"2020-038AJ","MEAN_ELEMENT_THEORY":"SGP4","BSTAR":"0.00010693000000","FILE":"3254265","SITE":"AFETR","COUNTRY_CODE":"US","MEAN_MOTION_DDOT":"0.0000000000000","DECAY_DATE":null},{"CLASSIFICATION_TYPE":"U","ARG_OF_PERICENTER":"92.8903","ELEMENT_SET_NO":"999","GP_ID":"192672672","APOAPSIS":"340.518","CENTER_NAME":"EARTH","EPHEMERIS_TYPE":"0","ECCENTRICITY":"0.00013710","MEAN_MOTION":"15.76771336","OBJECT_ID":"2020-038AK","BSTAR":"0.00009616800000","MEAN_ELEMENT_THEORY":"SGP4","FILE":"3254265","SITE":"AFETR","COUNTRY_CODE":"US","MEAN_MOTION_DDOT":"0.0000000000000","DECAY_DATE":null,"TLE_LINE2":"2 45763  53.0526 171.7293 0001371  92.8903 267.2273 15.76771336 86921","NORAD_CAT_ID":"45763","SEMIMAJOR_AXIS":"6717.732","OBJECT_NAME":"STARLINK-1501","TIME_SYSTEM":"UTC","TLE_LINE1":"1 45763U 20038AK  21362.76305904  .00015143  00000-0  96168-4 0  9994","RA_OF_ASC_NODE":"171.7293","RCS_SIZE":"LARGE","INCLINATION":"53.0526","EPOCH":"2021-12-28T18:18:48.301056","MEAN_ANOMALY":"267.2273","REV_AT_EPOCH":"8692","PERIOD":"91.326","MEAN_MOTION_DOT":"0.00015143","PERIAPSIS":"338.676","LAUNCH_DATE":"2020-06-13","REF_FRAME":"TEME","OBJECT_TYPE":"PAYLOAD"},{"SITE":"AFETR","FILE":"3254265","COUNTRY_CODE":"US","DECAY_DATE":null,"MEAN_MOTION_DDOT":"0.0000000000000","GP_ID":"192672421","CLASSIFICATION_TYPE":"U","ARG_OF_PERICENTER":"66.2723","ELEMENT_SET_NO":"999","APOAPSIS":"548.441","CENTER_NAME":"EARTH","EPHEMERIS_TYPE":"0","ECCENTRICITY":"0.00017840","OBJECT_ID":"2020-038AL","MEAN_MOTION":"15.06402736","BSTAR":"0.00013891000000","MEAN_ELEMENT_THEORY":"SGP4","MEAN_ANOMALY":"293.8453","REV_AT_EPOCH":"8561","LAUNCH_DATE":"2020-06-13","PERIAPSIS":"545.970","PERIOD":"95.592","MEAN_MOTION_DOT":"0.00001788","REF_FRAME":"TEME","OBJECT_TYPE":"PAYLOAD","TIME_SYSTEM":"UTC","OBJECT_NAME":"STARLINK-1502","TLE_LINE2":"2 45764  53.0535 252.9176 0001784  66.2723 293.8453 15.06402736 85615","NORAD_CAT_ID":"45764","SEMIMAJOR_AXIS":"6925.340","RA_OF_ASC_NODE":"252.9176","TLE_LINE1":"1 45764U 20038AL  21362.93638330  .00001788  00000-0  13891-3 0  9997","RCS_SIZE":"LARGE","INCLINATION":"53.0535","EPOCH":"2021-12-28T22:28:23.517120"},{"RCS_SIZE":"LARGE","TLE_LINE1":"1 45766U 20038AN  21362.92533250  .00001388  00000-0  11205-3 0  9996","RA_OF_ASC_NODE":"252.9860","TLE_LINE2":"2 45766  53.0527 252.9860 0001886  59.9313 300.1863 15.06399920 85599","SEMIMAJOR_AXIS":"6925.349","NORAD_CAT_ID":"45766","OBJECT_NAME":"STARLINK-1509","TIME_SYSTEM":"UTC","EPOCH":"2021-12-28T22:12:28.728000","INCLINATION":"53.0527","REV_AT_EPOCH":"8559","MEAN_ANOMALY":"300.1863","OBJECT_TYPE":"PAYLOAD","REF_FRAME":"TEME","MEAN_MOTION_DOT":"0.00001388","PERIOD":"95.592","LAUNCH_DATE":"2020-06-13","PERIAPSIS":"545.908","EPHEMERIS_TYPE":"0","CENTER_NAME":"EARTH","APOAPSIS":"548.520","ELEMENT_SET_NO":"999","CLASSIFICATION_TYPE":"U","ARG_OF_PERICENTER":"59.9313","GP_ID":"192673173","BSTAR":"0.00011205000000","MEAN_ELEMENT_THEORY":"SGP4","OBJECT_ID":"2020-038AN","MEAN_MOTION":"15.06399920","ECCENTRICITY":"0.00018860","COUNTRY_CODE":"US","FILE":"3254265","SITE":"AFETR","MEAN_MOTION_DDOT":"0.0000000000000","DECAY_DATE":null},{"DECAY_DATE":null,"MEAN_MOTION_DDOT":"0.0000000000000","FILE":"3254265","SITE":"AFETR","COUNTRY_CODE":"US","MEAN_MOTION":"15.06399306","OBJECT_ID":"2020-038AP","ECCENTRICITY":"0.00019060","BSTAR":"0.00008768200000","MEAN_ELEMENT_THEORY":"SGP4","GP_ID":"192673924","ELEMENT_SET_NO":"999","CLASSIFICATION_TYPE":"U","ARG_OF_PERICENTER":"59.9302","EPHEMERIS_TYPE":"0","CENTER_NAME":"EARTH","APOAPSIS":"548.536","LAUNCH_DATE":"2020-06-13","PERIAPSIS":"545.896","MEAN_MOTION_DOT":"0.00001025","PERIOD":"95.592","OBJECT_TYPE":"PAYLOAD","REF_FRAME":"TEME","MEAN_ANOMALY":"300.1876","REV_AT_EPOCH":"8559","INCLINATION":"53.0540","EPOCH":"2021-12-28T22:01:52.183776","OBJECT_NAME":"STARLINK-1511","TIME_SYSTEM":"UTC","TLE_LINE2":"2 45767  53.0540 253.0161 0001906  59.9302 300.1876 15.06399306 85594","NORAD_CAT_ID":"45767","SEMIMAJOR_AXIS":"6925.351","RCS_SIZE":"LARGE","RA_OF_ASC_NODE":"253.0161","TLE_LINE1":"1 45767U 20038AP  21362.91796509  .00001025  00000-0  87682-4 0  9995"},{"OBJECT_TYPE":"PAYLOAD","REF_FRAME":"TEME","LAUNCH_DATE":"2020-06-13","PERIAPSIS":"545.746","MEAN_MOTION_DOT":"0.00005830","PERIOD":"95.592","REV_AT_EPOCH":"8560","MEAN_ANOMALY":"297.5986","EPOCH":"2021-12-28T21:35:19.392864","INCLINATION":"53.0539","RCS_SIZE":"LARGE","RA_OF_ASC_NODE":"253.1045","TLE_LINE1":"1 45768U 20038AQ  21362.89953001  .00005830  00000-0  40986-3 0  9998","TIME_SYSTEM":"UTC","OBJECT_NAME":"STARLINK-1521","NORAD_CAT_ID":"45768","TLE_LINE2":"2 45768  53.0539 253.1045 0002082  62.5214 297.5986 15.06408479 85608","SEMIMAJOR_AXIS":"6925.323","DECAY_DATE":null,"MEAN_MOTION_DDOT":"0.0000000000000","COUNTRY_CODE":"US","FILE":"3254265","SITE":"AFETR","BSTAR":"0.00040986000000","MEAN_ELEMENT_THEORY":"SGP4","OBJECT_ID":"2020-038AQ","MEAN_MOTION":"15.06408479","ECCENTRICITY":"0.00020820","EPHEMERIS_TYPE":"0","APOAPSIS":"548.629","CENTER_NAME":"EARTH","GP_ID":"192672172","ELEMENT_SET_NO":"999","ARG_OF_PERICENTER":"62.5214","CLASSIFICATION_TYPE":"U"},{"BSTAR":"0.00005223700000","MEAN_ELEMENT_THEORY":"SGP4","ECCENTRICITY":"0.00019060","MEAN_MOTION":"15.06402064","OBJECT_ID":"2020-038AR","CENTER_NAME":"EARTH","APOAPSIS":"548.527","EPHEMERIS_TYPE":"0","CLASSIFICATION_TYPE":"U","ARG_OF_PERICENTER":"60.2206","ELEMENT_SET_NO":"999","GP_ID":"192672922","MEAN_MOTION_DDOT":"0.0000000000000","DECAY_DATE":null,"COUNTRY_CODE":"US","SITE":"AFETR","FILE":"3254265","EPOCH":"2021-12-28T22:09:49.168800","INCLINATION":"53.0542","TLE_LINE1":"1 45769U 20038AR  21362.92348575  .00000497  00000-0  52237-4 0  9994","RA_OF_ASC_NODE":"272.9918","RCS_SIZE":"LARGE","TLE_LINE2":"2 45769  53.0542 272.9918 0001906  60.2206 299.8973 15.06402064 85325","NORAD_CAT_ID":"45769","SEMIMAJOR_AXIS":"6925.342","OBJECT_NAME":"STARLINK-1459","TIME_SYSTEM":"UTC","REF_FRAME":"TEME","OBJECT_TYPE":"PAYLOAD","PERIOD":"95.592","MEAN_MOTION_DOT":"0.00000497","LAUNCH_DATE":"2020-06-13","PERIAPSIS":"545.887","REV_AT_EPOCH":"8532","MEAN_ANOMALY":"299.8973"},{"COUNTRY_CODE":"US","FILE":"3254265","SITE":"AFETR","DECAY_DATE":null,"MEAN_MOTION_DDOT":"0.0000000000000","EPHEMERIS_TYPE":"0","APOAPSIS":"548.680","CENTER_NAME":"EARTH","GP_ID":"192673674","ELEMENT_SET_NO":"999","CLASSIFICATION_TYPE":"U","ARG_OF_PERICENTER":"68.0445","BSTAR":"0.00008891400000","MEAN_ELEMENT_THEORY":"SGP4","MEAN_MOTION":"15.06401118","OBJECT_ID":"2020-038AS","ECCENTRICITY":"0.00021230","REV_AT_EPOCH":"8587","MEAN_ANOMALY":"292.0769","OBJECT_TYPE":"PAYLOAD","REF_FRAME":"TEME","PERIAPSIS":"545.740","LAUNCH_DATE":"2020-06-13","MEAN_MOTION_DOT":"0.00001043","PERIOD":"95.592","RCS_SIZE":"LARGE","RA_OF_ASC_NODE":"232.9779","TLE_LINE1":"1 45770U 20038AS  21362.92623402  .00001043  00000-0  88914-4 0  9990","OBJECT_NAME":"STARLINK-1462","TIME_SYSTEM":"UTC","SEMIMAJOR_AXIS":"6925.345","TLE_LINE2":"2 45770  53.0524 232.9779 0002123  68.0445 292.0769 15.06401118 85878","NORAD_CAT_ID":"45770","EPOCH":"2021-12-28T22:13:46.619328","INCLINATION":"53.0524"}];
